{"fetched_at":"2026-03-29T16:36:15Z","count":15609,"tles":[{"name":"STARLINK-11591 [DTC]","line1":"1 63116U 25039N   26087.78949204  .00223411  00000+0  16947-2 0  9993","line2":"2 63116  42.9993 121.3337 0002485  45.4227 314.6843 15.70887964 62628","category":"Starlink"}]}